[{"OBJECT_NAME":"HIBARI","OBJECT_ID":"2021-102F","EPOCH":"2026-03-09T16:55:51.090816","MEAN_MOTION":15.29554512,"ECCENTRICITY":0.00120742,"INCLINATION":97.3381,"RA_OF_ASC_NODE":115.826,"ARG_OF_PERICENTER":186.5211,"MEAN_ANOMALY":173.5875,"EPHEMERIS_TYPE":0,"CLASSIFICATION_TYPE":"U","NORAD_CAT_ID":49400,"ELEMENT_SET_NO":999,"REV_AT_EPOCH":23897,"BSTAR":0.00042758039,"MEAN_MOTION_DOT":0.00012206,"MEAN_MOTION_DDOT":0},{"OBJECT_NAME":"STARLINK-35230","OBJECT_ID":"2025-212F","EPOCH":"2026-03-09T22:51:14.696352","MEAN_MOTION":15.30217637,"ECCENTRICITY":8.953e-5,"INCLINATION":53.1624,"RA_OF_ASC_NODE":344.4629,"ARG_OF_PERICENTER":105.8434,"MEAN_ANOMALY":254.2666,"EPHEMERIS_TYPE":0,"CLASSIFICATION_TYPE":"U","NORAD_CAT_ID":65681,"ELEMENT_SET_NO":999,"REV_AT_EPOCH":2729,"BSTAR":0.0014033284,"MEAN_MOTION_DOT":0.00041458,"MEAN_MOTION_DDOT":0}]
